OBJECT_NAME,OBJECT_ID,EPOCH,MEAN_MOTION,ECCENTRICITY,INCLINATION,RA_OF_ASC_NODE,ARG_OF_PERICENTER,MEAN_ANOMALY,EPHEMERIS_TYPE,CLASSIFICATION_TYPE,NORAD_CAT_ID,ELEMENT_SET_NO,REV_AT_EPOCH,BSTAR,MEAN_MOTION_DOT,MEAN_MOTION_DDOT
STARLINK-35153,2025-210D,2026-06-13T21:04:57.064800,15.34403350,.0000921,53.1591,218.4799,62.7742,297.3354,0,U,65625,999,4240,.56686E-3,.18826E-3,0
STARLINK-35225,2025-210E,2026-06-14T07:01:03.188928,15.34411762,.00013808,53.1578,216.7974,85.6104,274.5056,0,U,65626,999,4254,.10851982E-2,.36481E-3,0
STARLINK-35217,2025-210F,2026-06-13T20:59:43.462176,15.30228086,.0001451,53.1602,220.5790,91.7383,268.3784,0,U,65627,999,4245,.47232E-3,.13667E-3,0
STARLINK-35128,2025-210G,2026-06-13T10:53:49.422336,15.34399161,.0001179,53.1579,220.8065,66.9933,293.1194,0,U,65628,999,4241,.87276261E-3,.29226E-3,0
STARLINK-35135,2025-210H,2026-06-13T20:49:55.534368,15.34419768,.0001232,53.1605,219.1247,82.9678,277.1464,0,U,65629,999,4247,.41844E-3,.13796E-3,0
STARLINK-34877,2025-210J,2026-06-14T07:25:17.387328,15.34398446,.0001225,53.1572,216.9002,97.9453,262.1688,0,U,65630,999,4254,.65694051E-3,.21883E-3,0
STARLINK-35104,2025-210K,2026-06-14T06:45:54.307584,15.34403739,.00011626,53.1586,216.7307,105.3727,254.7404,0,U,65631,999,4253,.87763793E-3,.29396E-3,0
STARLINK-35117,2025-210L,2026-06-13T21:04:19.937856,15.30167117,.0001042,53.1605,220.5979,55.5915,304.5184,0,U,65632,999,4245,.24784E-3,.6981E-4,0
STARLINK-35103,2025-210M,2026-06-14T06:54:59.717952,15.34411530,.00014418,53.1580,216.7691,83.1049,277.0118,0,U,65633,999,4254,.97657672E-3,.32775E-3,0
STARLINK-35123,2025-210N,2026-06-14T07:29:01.512384,15.31683201,.00014544,53.1586,218.3304,115.9181,244.1970,0,U,65634,999,4252,.63097759E-3,.19255E-3,0
STARLINK-35150,2025-210P,2026-06-13T20:58:13.399680,15.30202584,.0001387,53.1593,220.5742,77.1114,283.0041,0,U,65635,999,4245,.40543E-3,.11668E-3,0
STARLINK-35209,2025-210Q,2026-06-13T20:52:57.978336,15.34416949,.000142,53.1599,219.1353,91.6817,268.4348,0,U,65636,999,4247,.3845E-3,.12644E-3,0
STARLINK-35147,2025-210R,2026-06-13T09:17:00.123072,15.34399932,.00012249,53.1578,221.0946,86.6141,273.5002,0,U,65637,999,4240,.64289835E-3,.21407E-3,0
STARLINK-35213,2025-210S,2026-06-14T07:04:05.276064,15.34416575,.00014294,53.1574,216.8076,87.1048,273.0119,0,U,65638,999,4254,.10990834E-2,.36961E-3,0
STARLINK-35127,2025-210T,2026-06-14T06:51:56.699424,15.34438573,.00011378,53.1583,216.7535,78.8358,281.2773,0,U,65639,999,4254,.84687849E-3,.2838E-3,0
STARLINK-35091,2025-210U,2026-06-14T07:34:22.872000,15.34406214,.00011339,53.1578,216.9379,92.2776,267.8356,0,U,65640,999,4254,.88301045E-3,.29581E-3,0
STARLINK-35134,2025-210V,2026-06-13T10:23:31.437600,15.34405326,.00011488,53.1588,220.6760,69.7725,290.3401,0,U,65641,999,4241,.67681631E-3,.22564E-3,0
STARLINK-35109,2025-210W,2026-06-13T21:11:00.623040,15.34407001,.0001128,53.1591,218.5012,81.3115,278.8016,0,U,65642,999,4248,.85157E-3,.28511E-3,0
STARLINK-35062,2025-210X,2026-06-13T21:07:58.738080,15.34399244,.0001146,53.1589,218.4890,76.5065,283.6065,0,U,65643,999,4248,.72409E-3,.24167E-3,0
STARLINK-35141,2025-210Y,2026-06-14T00:00:02.000160,15.31668532,.00012217,53.1592,219.9805,88.7733,248.0970,0,U,65644,999,588,.17660549E-2,.54787E-3,0
STARLINK-35237,2025-210Z,2026-06-13T21:07:20.169120,15.30205084,.000121,53.1587,220.6080,85.4907,274.6232,0,U,65645,999,4245,.32648E-3,.9324E-4,0
STARLINK-35183,2025-210AA,2026-06-13T20:53:38.740128,15.30224258,.000156,53.1592,220.5496,84.7416,275.3763,0,U,65646,999,4245,.34408E-3,.9853E-4,0
STARLINK-35202,2025-210AB,2026-06-13T21:07:18.003936,15.34397998,.0001249,53.1597,217.0580,75.3289,284.7852,0,U,65647,999,4250,.48988E-3,.1621E-3,0
STARLINK-34868,2025-210AC,2026-06-14T07:22:15.643200,15.34396479,.00011536,53.1569,216.8790,97.4623,262.6510,0,U,65648,999,4254,.83680031E-3,.27999E-3,0
STARLINK-35079,2025-210AD,2026-06-14T02:59:14.486208,15.30204006,.00021091,53.1588,219.2879,52.3357,307.7835,0,U,65649,999,4249,.32063075E-3,.915E-4,0
STARLINK-35328,2025-211A,2026-06-14T02:09:04.625568,15.05659635,.00023902,97.3615,208.1477,116.3486,243.7987,0,U,65652,999,4154,.28795086E-3,.4101E-4,0
STARLINK-34210,2025-211B,2026-06-14T02:01:05.738880,15.05669579,.00012228,97.3618,208.1575,86.9259,273.2108,0,U,65653,999,4154,-.25236387E-3,-.3698E-4,0
STARLINK-35227,2025-211C,2026-06-14T01:53:07.713600,15.05663172,.00020039,97.3604,208.1642,81.3095,278.8359,0,U,65654,999,4154,.29464472E-3,.4198E-4,0
STARLINK-35240,2025-211D,2026-06-14T02:05:05.368416,15.05658843,.00019218,97.3612,208.1519,118.3269,241.8152,0,U,65655,999,4154,.27130179E-3,.386E-4,0
STARLINK-35344,2025-211E,2026-06-14T01:57:06.905088,15.05661845,.00011978,97.3605,208.1601,81.9790,278.1573,0,U,65656,999,4154,.33812884E-3,.4826E-4,0
