STARLINK-35153          
1 65625U 25210D   26164.87843825  .00018826  00000+0  56686-3 0  9996
2 65625  53.1591 218.4799 0000921  62.7742 297.3354 15.34403350 42401
STARLINK-35225          
1 65626U 25210E   26165.29239802  .00036481  00000+0  10852-2 0  9999
2 65626  53.1578 216.7974 0001380  85.6104 274.5056 15.34411762 42546
STARLINK-35217          
1 65627U 25210F   26164.87480859  .00013667  00000+0  47232-3 0  9997
2 65627  53.1602 220.5790 0001451  91.7383 268.3784 15.30228086 42450
STARLINK-35128          
1 65628U 25210G   26164.45404424  .00029226  00000+0  87276-3 0  9996
2 65628  53.1579 220.8065 0001179  66.9933 293.1194 15.34399161 42418
STARLINK-35135          
1 65629U 25210H   26164.86800387  .00013796  00000+0  41844-3 0  9996
2 65629  53.1605 219.1247 0001232  82.9678 277.1464 15.34419768 42470
STARLINK-34877          
1 65630U 25210J   26165.30922902  .00021883  00000+0  65694-3 0  9991
2 65630  53.1572 216.9002 0001225  97.9453 262.1688 15.34398446 42547
STARLINK-35104          
1 65631U 25210K   26165.28187856  .00029396  00000+0  87764-3 0  9999
2 65631  53.1586 216.7307 0001162 105.3727 254.7404 15.34403739 42531
STARLINK-35117          
1 65632U 25210L   26164.87800854  .00006981  00000+0  24784-3 0  9992
2 65632  53.1605 220.5979 0001042  55.5915 304.5184 15.30167117 42457
STARLINK-35103          
1 65633U 25210M   26165.28819118  .00032775  00000+0  97658-3 0  9992
2 65633  53.1580 216.7691 0001441  83.1049 277.0118 15.34411530 42542
STARLINK-35123          
1 65634U 25210N   26165.31182306  .00019255  00000+0  63098-3 0  9998
2 65634  53.1586 218.3304 0001454 115.9181 244.1970 15.31683201 42525
STARLINK-35150          
1 65635U 25210P   26164.87376620  .00011668  00000+0  40543-3 0  9993
2 65635  53.1593 220.5742 0001387  77.1114 283.0041 15.30202584 42458
STARLINK-35209          
1 65636U 25210Q   26164.87011549  .00012644  00000+0  38450-3 0  9999
2 65636  53.1599 219.1353 0001420  91.6817 268.4348 15.34416949 42471
STARLINK-35147          
1 65637U 25210R   26164.38680698  .00021407  00000+0  64290-3 0  9991
2 65637  53.1578 221.0946 0001224  86.6141 273.5002 15.34399932 42404
STARLINK-35213          
1 65638U 25210S   26165.29450551  .00036961  00000+0  10991-2 0  9995
2 65638  53.1574 216.8076 0001429  87.1048 273.0119 15.34416575 42548
STARLINK-35127          
1 65639U 25210T   26165.28607291  .00028380  00000+0  84688-3 0  9991
2 65639  53.1583 216.7535 0001137  78.8358 281.2773 15.34438573 42544
STARLINK-35091          
1 65640U 25210U   26165.31554250  .00029581  00000+0  88301-3 0  9993
2 65640  53.1578 216.9379 0001133  92.2776 267.8356 15.34406214 42542
STARLINK-35134          
1 65641U 25210V   26164.43300275  .00022564  00000+0  67682-3 0  9995
2 65641  53.1588 220.6760 0001148  69.7725 290.3401 15.34405326 42410
STARLINK-35109          
1 65642U 25210W   26164.88264610  .00028511  00000+0  85157-3 0  9992
2 65642  53.1591 218.5012 0001128  81.3115 278.8016 15.34407001 42484
STARLINK-35062          
1 65643U 25210X   26164.88054095  .00024167  00000+0  72409-3 0  9996
2 65643  53.1589 218.4890 0001146  76.5065 283.6065 15.34399244 42482
STARLINK-35141          
1 65644U 25210Y   26165.00002315  .00054787  00000+0  17661-2 0  9999
2 65644  53.1592 219.9805 0001221  88.7733 248.0970 15.31668532  5889
STARLINK-35237          
1 65645U 25210Z   26164.88009455  .00009324  00000+0  32648-3 0  9997
2 65645  53.1587 220.6080 0001210  85.4907 274.6232 15.30205084 42451
STARLINK-35183          
1 65646U 25210AA  26164.87058727  .00009853  00000+0  34408-3 0  9996
2 65646  53.1592 220.5496 0001560  84.7416 275.3763 15.30224258 42454
STARLINK-35202          
1 65647U 25210AB  26164.88006949  .00016210  00000+0  48988-3 0  9990
2 65647  53.1597 217.0580 0001249  75.3289 284.7852 15.34397998 42508
STARLINK-34868          
1 65648U 25210AC  26165.30712550  .00027999  00000+0  83680-3 0  9995
2 65648  53.1569 216.8790 0001153  97.4623 262.6510 15.34396479 42542
STARLINK-35079          
1 65649U 25210AD  26165.12447322  .00009150  00000+0  32063-3 0  9996
2 65649  53.1588 219.2879 0002109  52.3357 307.7835 15.30204006 42490
STARLINK-35328          
1 65652U 25211A   26165.08963687  .00004101  00000+0  28795-3 0  9991
2 65652  97.3615 208.1477 0002390 116.3486 243.7987 15.05659635 41548
STARLINK-34210          
1 65653U 25211B   26165.08409420 -.00003698  00000+0 -25236-3 0  9991
2 65653  97.3618 208.1575 0001222  86.9259 273.2108 15.05669579 41545
STARLINK-35227          
1 65654U 25211C   26165.07856150  .00004198  00000+0  29464-3 0  9998
2 65654  97.3604 208.1642 0002003  81.3095 278.8359 15.05663172 41543
STARLINK-35240          
1 65655U 25211D   26165.08686769  .00003860  00000+0  27130-3 0  9990
2 65655  97.3612 208.1519 0001921 118.3269 241.8152 15.05658843 41548
STARLINK-35344          
1 65656U 25211E   26165.08132992  .00004826  00000+0  33813-3 0  9993
2 65656  97.3605 208.1601 0001197  81.9790 278.1573 15.05661845 41548
